#dP2020  3  7  0  0  0.00000000      96 __u+U ITR00 FIT  IAC
## 2095 518400.00000000   900.00000000 58915 0.0000000000000
+  114   C01C02C03C04C05C06C07C08C09C10C11C12C13C14C19C20C21
+        C22C23C24C25C26C27C28C29C30C32C33C34C35C36C37E01E02
+        E03E04E05E07E08E09E11E12E13E14E15E18E19E21E24E25E26
+        E27E30E31E33E36G01G02G03G04G05G06G07G08G09G10G11G12
+        G13G14G15G16G17G18G19G20G21G22G23G24G25G26G27G28G29
+        G30G31G32J01J02J03J07R01R02R03R04R05R07R08R09R11R12
+        R13R14R15R16R17R18R19R20R21R22R23R26  0  0  0  0  0
++        13 12 13 12 12  8  8  8  8  8  8  8  8  8  8  8  8
++         8  8  8  8  8  8  7  8  8  8  8  8  8  8  8  5  4
++         4  5  4  5  4  4  5  5  4  5  5  4  5  5  6  5  4
++         4  5  5  4  5  3  3  3  3  3  3  3  3  3  3  3  3
++         4  3  4  4  3  4  3  3  3  3  3  3  3  3  3  3  4
++         3  3  3  8  8  8 15  6  5  6  6  5  5  5  5  5  6
++         6  5  5  6  6  6  6  6  5  5  5  8  0  0  0  0  0
%c M  cc GPS ccc cccc cccc cccc cccc ccccc ccccc ccccc ccccc
%c cc cc ccc ccc cccc cccc cccc cccc ccccc ccccc ccccc ccccc
%f  0.0000000  0.000000000  0.00000000000  0.000000000000000
%f  0.0000000  0.000000000  0.00000000000  0.000000000000000
%i    0    0    0    0      0      0      0      0         0
%i    0    0    0    0      0      0      0      0         0
/* INFORMATION & ANALYSIS CENTER (IAC)            RAPID DATA
/* S/V CLOCKS ARE ALIGNED TO GNSS TIME                      
/* G:C1WC2W R:C1PC2P E:C1XC5X C:C2IC6I J:C1CC2S             
/* PCV:IGS14_2091 OL/AL:FES2004  NONE     YN ORB:CoN CLK:CoN
*  2020 03 07 19  0  0.00000000
PC01 -32277.487410  27132.218095   -531.651611    285.888696
PC02   4394.449796  41935.917233   1253.785379    497.861235
PC03 -14865.767723  39483.738631    613.151167     -8.094312
PC04 -39600.491066  14440.509426   -167.911232    -56.833525
PC05  21863.279296  36064.785527   1404.917946    -88.529470
PC06 -12538.615831  37899.616576  14570.227054    241.312347
PC07 -12766.753937  22737.354288 -32941.190114   -126.011293
PC08 -25604.988264  27050.677670  19534.295262   -145.778394
PC09  -4539.422598  42121.760337    721.953796    385.212216
PC10   2435.571854  28669.290434 -30534.201287   -732.039537
PC11 -16056.126324    399.204307 -22751.280698   -226.190919
PC12  -6786.981323 -18927.721232 -19320.196838    328.564690
PC13 -11975.575674  28315.838055  28833.556123    309.696745
PC14 -21799.802822  -9086.642451  14938.129057    215.182949
PC19  18895.576357    -62.227803 -20503.582058    345.543998
PC20  21317.629687  16268.976336  -7651.850341   -826.676145
PC21 -11110.053370 -23496.839391 -10165.918957   -148.860951
PC22   5438.880335 -16711.508461 -21676.473112   -882.660795
PC23 -16024.012052  15209.219878 -17049.100738   -913.853756
PC24 -22228.565986  -7035.199324  15303.091161   -913.062297
PC25 -27010.864348   6781.693389  -1615.789639   -540.493174
PC26  -5422.276772 -15304.102533  22687.115997    598.041964
PC27    210.310557  24861.263478  12685.464822    291.148945
PC28 -12395.710617  24576.878350  -4575.397598    282.097635
PC29  17352.886490 -10615.213286  19098.544555    197.733775
PC30  12944.538301  10419.777281  22424.802045    283.122847
PC32  11244.753243  23419.612993  10195.969491   -889.064156
PC33 -18970.654546    106.470750  20480.456009   -922.571041
PC34 -13176.349242  -9977.835205 -22482.137702   -528.599712
PC35  11648.268447 -24893.917338   4720.452466   -950.653177
PC36  27211.792658  -6023.666420   1419.276936   -823.540412
PC37   4404.355054  15566.227786 -22725.557567   -863.149144
PE01 -17625.425004 -16253.273075  17349.887136   -809.914253
PE02  17712.592830  16239.942409 -17300.239304    117.766790
PE03  12311.942584  26143.403798  -6381.550119   -274.244052
PE04 -18365.631322 -10122.580654  20894.867315   -480.368666
PE05  -1032.881529  27020.421902  12041.656742   -399.240734
PE07  13671.625640 -12109.183683 -23290.743924   -350.963532
PE08  18316.784388   9812.484467 -21074.528672   6210.060088
PE09 -13429.511213  12222.212395  23377.600630   6133.089560
PE11 -22696.603961  17850.858067  -6561.700059   1615.473633
PE12 -20138.562486    522.606581 -21685.323074   5915.750612
PE13  22660.856599 -17767.681119   6843.994671    399.015482
PE14   1483.364043 -27787.975974   -304.617585   -931.827823
PE15  20166.558446   -808.711259  21663.403601    874.790508
PE18 -12001.695528  23861.014077 -12264.558890  -1029.708105
PE19 -11138.925384 -27064.100059   4423.574829     -1.232669
PE21   3601.502494 -16010.000863  24628.231905   -586.656166
PE24 -23066.772559   6270.718283 -17457.068990   5572.483504
PE25  -3720.677765  15984.423905 -24633.642482   -506.005677
PE26  11699.563080 -24275.711758 -12232.998500   3446.148519
PE27  22982.234341  -6403.936682  17526.005548    267.157998
PE30  28715.809739   7219.766942    -55.834694   4085.759519
PE31 -28777.268335  -6920.384870   -161.048688   -471.926904
PE33  -5838.128629 -16622.962898 -23769.762078   -469.710606
PE36 -11848.581511  24324.612608  12027.862964    589.032662
PG01   7395.079322 -18123.766407 -17999.323869   -318.313532
PG02 -22192.423454  14466.478804   -518.073718   -417.778015
PG03  -4606.442804 -17956.848976 -19111.928572   -112.043334
PG04    421.135335 -26536.789994    611.955775    -59.013268
PG05 -16601.032150   6832.919413  19502.347480     -8.743026
PG06 -23533.809368   4826.893159 -11321.216623   -225.657223
PG07 -11065.189628 -11400.430772  21623.930696   -230.575766
PG08   6815.134940 -23316.849991  10460.307060    -26.286181
PG09  -7750.284415 -23140.565150  10410.989502   -171.504668
PG10  24001.148033  11172.077032  -3281.976484   -269.596872
PG11  11247.311386 -23837.054239  -4875.132870   -340.614216
PG12    953.622818  17233.009083 -20469.115383    143.287988
PG13 -12837.237417  17314.833156  15341.589585     -7.517803
PG14  15146.173754  -2767.177468 -21288.036235    -27.823787
PG15  -4462.026089  24173.459336   9245.888602   -246.584431
PG16  16669.502191  -4734.780630  20050.293234   -132.440162
PG17 -13372.344999  -8673.617541 -20833.006804    228.209184
PG18  14194.114957 -19276.850341 -11916.486309      5.956334
PG19 -14945.944901    246.404861 -22249.422654   -188.921722
PG20  20555.899891  14944.061557   7993.432162    527.877337
PG21  12354.895354  10447.201149  21826.125566    -31.004830
PG22   4213.805938 -15362.217617 -21038.377270   -785.374325
PG23  -1783.100626 -26260.574615   1624.072146   -131.335732
PG24  -8247.246388  19514.135214 -15988.921086    -10.033956
PG25  13107.940793  18748.575095 -13956.450833    -10.150454
PG26  22920.840812   1269.693590  13514.315885    162.928891
PG27  12259.777485 -14556.009775  18255.144198   -231.887090
PG28 -22785.264922 -12565.111218  -4342.854019    734.488157
PG29   4568.267759  24397.767216   9390.887050    -50.861523
PG30 -20261.486443  -3337.234021  16984.040433   -170.048783
PG31  24547.964390  -6304.530617  -8732.935836    -27.921182
PG32  14725.973653   7256.081610 -20836.291067    230.537432
PJ01 -23115.973213  25230.729820  29738.445826   -326.913924
PJ02 -33076.907322  15156.106616 -16835.031474     -1.721533
PJ03 -22181.635641  31142.134819 -13134.881897     -0.950706
PJ07 -25367.458011  33689.859330      8.964613      0.054518
PR01  -4768.648688 -20812.983632 -13964.537302     58.197704
PR02 -14924.407712 -19575.204889   6620.307900    415.549540
PR03 -14492.325795  -5738.441157  20217.473289     11.112695
PR04  -5636.280606  11086.966699  22297.388438     41.190335
PR05   6297.316371  21768.903368  11742.601970     46.319696
PR07  14329.680413   5318.710412 -20398.296156    -34.092336
PR08   5740.500569 -11106.972954 -22178.571317    -50.925473
PR09  20862.692900   6288.501593 -13197.662641    120.642057
PR11  17071.669775  -8371.068730  16990.486990    -15.930655
PR12   -227.410106 -10929.815627  23067.213345    111.967776
PR13 -18459.287564  -7293.901371  15998.235825    -35.737411
PR14 -25506.478183    340.322137   -440.026052     48.889141
PR15 -17854.145167   7864.557893 -16414.287811    106.081967
PR16   1117.268168  11087.710747 -22974.798818     -1.950955
PR17 -14105.992817   5815.716273 -20417.961859    307.078021
PR18 -15036.972003  19262.763167  -7402.855192     27.660002
PR19  -8689.516493  22138.164991   9232.918234    -82.631590
PR20   4534.056530  11619.205638  22272.150472   -405.975982
PR21  14338.349744  -6708.611494  20014.032847   -109.706477
PR22  14441.035451 -20400.530113   4760.052111    -16.911999
PR23   4147.202692 -20305.292692 -14868.891766    291.061365
PR26   1966.565134  14954.734831  20578.392802   -404.345172
EOF
